{
    "links": {
        "self": "http://www.neowsapp.com/rest/v1/neo/3759643?api_key=iIulBulltgU6a56xZRHN4H3l9WmuAYTsLGpBGhQ2"
    },
    "id": "3759643",
    "neo_reference_id": "3759643",
    "name": "(2016 RM40)",
    "designation": "2016 RM40",
    "nasa_jpl_url": "http://ssd.jpl.nasa.gov/sbdb.cgi?sstr=3759643",
    "absolute_magnitude_h": 24.7,
    "estimated_diameter": {
        "kilometers": {
            "estimated_diameter_min": 0.0305179233,
            "estimated_diameter_max": 0.0682401509
        },
        "meters": {
            "estimated_diameter_min": 30.5179232594,
            "estimated_diameter_max": 68.2401509401
        },
        "miles": {
            "estimated_diameter_min": 0.0189629525,
            "estimated_diameter_max": 0.0424024508
        },
        "feet": {
            "estimated_diameter_min": 100.1244233463,
            "estimated_diameter_max": 223.8850168104
        }
    },
    "is_potentially_hazardous_asteroid": false,
    "close_approach_data": [
        {
            "close_approach_date": "2016-09-08",
            "close_approach_date_full": "2016-Sep-08 11:21",
            "epoch_date_close_approach": 1473333660000,
            "relative_velocity": {
                "kilometers_per_second": "23.1718858951",
                "kilometers_per_hour": "83418.789222459",
                "miles_per_hour": "51833.1915588107"
            },
            "miss_distance": {
                "astronomical": "0.0157765508",
                "lunar": "6.1370782612",
                "kilometers": "2360138.395626796",
                "miles": "1466521.9955139448"
            },
            "orbiting_body": "Earth"
        }
    ],
    "orbital_data": {
        "orbit_id": "4",
        "orbit_determination_date": "2017-08-10 06:20:10",
        "first_observation_date": "2016-09-08",
        "last_observation_date": "2016-09-24",
        "data_arc_in_days": 16,
        "observations_used": 39,
        "orbit_uncertainty": "8",
        "minimum_orbit_intersection": ".0126986",
        "jupiter_tisserand_invariant": "3.023",
        "epoch_osculation": "2457645.5",
        "eccentricity": ".7616825230445291",
        "semi_major_axis": "2.435410367624283",
        "inclination": ".9645419054625249",
        "ascending_node_longitude": "297.0046967184811",
        "orbital_period": "1388.214743922289",
        "perihelion_distance": ".580400854163415",
        "perihelion_argument": "319.6165223567007",
        "aphelion_distance": "4.290419881085151",
        "perihelion_time": "2457594.456708384222",
        "mean_anomaly": "13.23684614511537",
        "mean_motion": ".2593258727269017",
        "equinox": "J2000",
        "orbit_class": {
            "orbit_class_type": "APO",
            "orbit_class_description": "Near-Earth asteroid orbits which cross the Earth’s orbit similar to that of 1862 Apollo",
            "orbit_class_range": "a (semi-major axis) > 1.0 AU; q (perihelion) < 1.017 AU"
        }
    },
    "is_sentry_object": false
}